NUSAT-48 (HENRIETTA LE*)
1 60498U 24149AG  26068.80506098  .00012988  00000+0  45212-3 0  9999
2 60498  97.3923 150.8264 0002754 263.3026  96.7901 15.29812597 86946
STARLINK-35563          
1 66087U 25236B   26068.48384699  .00028413  00000+0  96792-3 0  9991
2 66087  53.1602 104.7929 0001540  70.0195 290.0972 15.30195000 22850
